Business,Address,Annual Consumption,Unit,City,Province,Country
#100 6704 6 ST SW,#100 6704 6 ST SW,545,GJ,Calgary,Alberta,Canada
#100 816 MCDOUGALL RD NE HOUSING,#100 816 MCDOUGALL RD NE,385,GJ,Calgary,Alberta,Canada
100 CASTLEDALE WY NE HOUSING,100 CASTLEDALE WY NE,156,GJ,Calgary,Alberta,Canada
100 FALCHURCH CR NE HOUSING,100 FALCHURCH CR NE,131,GJ,Calgary,Alberta,Canada
10 & 12 FALMEAD PL NE HOUSING,12 FALMEAD PL NE,148,GJ,Calgary,Alberta,Canada
#10-15 2730 19 AV SE HOUSING,#10-15 2730 19 AV SE,315,GJ,Calgary,Alberta,Canada
1019 78 AV NW HOUSING,1019 78 AV NW,136,GJ,Calgary,Alberta,Canada
1031A-1031D 8 ST SE HOUSING,1031 8 ST SE,272,GJ,Calgary,Alberta,Canada
1033-1039 8 ST SE HOUSING,1033 8 ST SE,489,GJ,Calgary,Alberta,Canada
1040 & 1042 MAGGIE ST SE HOUSING,1040 MAGGIE ST SE,137,GJ,Calgary,Alberta,Canada
1041 & 1043 8 ST SE HOUSING,1041 8 ST SE,122,GJ,Calgary,Alberta,Canada
1045 & 1047 8 ST SE HOUSING,1045 8 ST SE,127,GJ,Calgary,Alberta,Canada
1049 & 1051 8 ST SE HOUSING,1051 8 ST SE,139,GJ,Calgary,Alberta,Canada
104 ABINGDON CO NE HOUSING,104 ABINGDON CO NE,138,GJ,Calgary,Alberta,Canada
106-110 TACHE AV NW HOUSING,110 TACHE AV NW,199,GJ,Calgary,Alberta,Canada
108 ABALONE CR NE HOUSING,108 ABALONE CR NE,105,GJ,Calgary,Alberta,Canada
110 & 112 ERIN WOODS BV SE HOUSING,110 ERIN WOODS BV SE,180,GJ,Calgary,Alberta,Canada
1111 36 ST SE HOUSING,1111 36 ST SE,158,GJ,Calgary,Alberta,Canada
111 ABALONE WY NE HOUSING,111 ABALONE WY NE,110,GJ,Calgary,Alberta,Canada
1129 & 1131 22 AV NW HOUSING,1129 22 AV NW,165,GJ,Calgary,Alberta,Canada
113 & 115 FALBURY CR NE HOUSING,113 FALBURY CR NE,173,GJ,Calgary,Alberta,Canada
1133 & 1135 22 AV NW HOUSING,1131 22 AV NW,191,GJ,Calgary,Alberta,Canada
1137 & 1139 22 AV NW HOUSING,1133 22 AV NW,152,GJ,Calgary,Alberta,Canada
114 & 116 ERIN WOODS BV SE HOUSING,114 ERIN WOODS BV SE,226,GJ,Calgary,Alberta,Canada
116 ABBERCOVE WY SE HOUSING,116 ABBERCOVE WY SE,149,GJ,Calgary,Alberta,Canada
118-124 ERIN DALE CR SE HOUSING,120 ERIN DALE CR SE,258,GJ,Calgary,Alberta,Canada
120 FALTON DR NE HOUSING,120 FALTON DR NE,129,GJ,Calgary,Alberta,Canada
121 & 123 FALSBY RD NE HOUSING,121 FALSBY RD NE,161,GJ,Calgary,Alberta,Canada
1215 17 AV NW HOUSING,1215 17 AV NW,1020,GJ,Calgary,Alberta,Canada
121 FALTON DR NE HOUSING,121 FALTON DR NE,86,GJ,Calgary,Alberta,Canada
1239 17 AV NW HOUSING,1239 17 AV NW,948,GJ,Calgary,Alberta,Canada
123 ABALONE WY NE HOUSING,123 ABALONE WY NE,113,GJ,Calgary,Alberta,Canada
123 ERIN MOUNT CR SE HOUSING,123 ERIN MOUNT CR SE,110,GJ,Calgary,Alberta,Canada
123 FALTON DR NE HOUSING,123 FALTON DR NE,73,GJ,Calgary,Alberta,Canada
126-130 ERIN DALE CR SE HOUSING,126 ERIN DALE CR SE,266,GJ,Calgary,Alberta,Canada
127 ERIN MOUNT CR SE HOUSING,127 ERIN MOUNT CR SE,112,GJ,Calgary,Alberta,Canada
128 HAVENHURST CR SW HOUSING,128 HAVENHURST CR SW,128,GJ,Calgary,Alberta,Canada
12 ABBERCOVE DR SE HOUSING,12 ABBERCOVE DR SE,117,GJ,Calgary,Alberta,Canada
12 ERIN RIDGE PL SE HOUSING,12 ERIN RIDGE PL SE,110,GJ,Calgary,Alberta,Canada
1327 36 ST SE HOUSING,1327 36 ST SE,211,GJ,Calgary,Alberta,Canada
132 FALTON DR NE HOUSING,132 FALTON DR NE,142,GJ,Calgary,Alberta,Canada
1352 FALCONRIDGE DR NE HOUSING,1352 FALCONRIDGE DR NE,94,GJ,Calgary,Alberta,Canada
#1-3 60 CEDARWOOD HL SW HOUSING,60 CEDARWOOD HL SW,220,GJ,Calgary,Alberta,Canada
139 ERIN MOUNT CR SE HOUSING,139 ERIN MOUNT CR SE,136,GJ,Calgary,Alberta,Canada
13 ERIN WOODS PL SE HOUSING,13 ERIN WOODS PL SE,121,GJ,Calgary,Alberta,Canada
1404 & 1406 15 ST SE HOUSING,1406 15 ST SE,234,GJ,Calgary,Alberta,Canada
1407 & 1409 16 ST SE HOUSING,1409 16 ST SE,170,GJ,Calgary,Alberta,Canada
1408 & 1410 16 ST SE HOUSING,1410 16 ST SE,219,GJ,Calgary,Alberta,Canada
140 ERIN GROVE CL SE HOUSING,140 ERIN GROVE CL SE,126,GJ,Calgary,Alberta,Canada
140 FALTON CL NE HOUSING,140 FALTON CL NE,104,GJ,Calgary,Alberta,Canada
1413 & 1415 16A ST SE HOUSING,1415 16A ST SE,143,GJ,Calgary,Alberta,Canada
#14-18 7000 RANCHERO RD NW HOUSING,7000 RANCHERO RD NW,451,GJ,Calgary,Alberta,Canada
1420 & 1420 16A ST SE HOUSING,1420 16A ST SE,197,GJ,Calgary,Alberta,Canada
144 FALTON CL NE HOUSING,144 FALTON CL NE,97,GJ,Calgary,Alberta,Canada
1451 21 AV SW HOUSING,1451 21 AV SW,4583,GJ,Calgary,Alberta,Canada
15 & 19 DEERPOINT RD SE HOUSING,19 DEERPOINT RD SE,198,GJ,Calgary,Alberta,Canada
152 ABINGDON CO NE HOUSING,152 ABINGDON CO NE,155,GJ,Calgary,Alberta,Canada
155 & 157 FALTON DR NE HOUSING,155 FALTON DR NE,178,GJ,Calgary,Alberta,Canada
159 & 161 FALTON DR NE HOUSING,159 FALTON DR NE,183,GJ,Calgary,Alberta,Canada
15 RANCHERO GR NW HOUSING,15 RANCHERO GR NW,289,GJ,Calgary,Alberta,Canada
160 FALTON DR NE HOUSING,160 FALTON DR NE,106,GJ,Calgary,Alberta,Canada
#1-6 15 NORQUAY CO NW HOUSING,#1-6 15 NORQUAY CO NW,670,GJ,Calgary,Alberta,Canada
1620 12 AV SW HOUSING,1620 12 AV SW,2135,GJ,Calgary,Alberta,Canada
1631 4A ST NW HOUSING,1631 4A ST NW,45,GJ,Calgary,Alberta,Canada
1635 6A ST NW HOUSING,1635 6A ST NW,42,GJ,Calgary,Alberta,Canada
1636 4A ST NW HOUSING,1636 4A ST NW,28,GJ,Calgary,Alberta,Canada
1636 6A ST NW HOUSING,1636 6A ST NW,41,GJ,Calgary,Alberta,Canada
1636 6 ST NW HOUSING,1636 6 ST NW,27,GJ,Calgary,Alberta,Canada
1636 7A ST NW HOUSING,1636 7A ST NW,38,GJ,Calgary,Alberta,Canada
1636 8 ST NW HOUSING,1636 8 ST NW,25,GJ,Calgary,Alberta,Canada
1636 9 ST NW HOUSING,1636 9 ST NW,29,GJ,Calgary,Alberta,Canada
167 & 169 FALTON DR NE HOUSING,167 FALTON DR NE,179,GJ,Calgary,Alberta,Canada
171 & 173 FALTON DR NE HOUSING,171 FALTON DR NE,245,GJ,Calgary,Alberta,Canada
1712 35 ST SE HOUSING,1712 35 ST SE,1281,GJ,Calgary,Alberta,Canada
171 ERIN MOUNT CR SE HOUSING,171 ERIN MOUNT CR SE,100,GJ,Calgary,Alberta,Canada
1733 28 AV SW HOUSING,1733 28 AV SW,1625,GJ,Calgary,Alberta,Canada
173 ERIN RIDGE RD SE HOUSING,173 ERIN RIDGE RD SE,95,GJ,Calgary,Alberta,Canada
175 & 177 FALTON DR NE HOUSING,175 FALTON DR NE,164,GJ,Calgary,Alberta,Canada
#1-7 7000 RANCHERO RD NW HOUSING,20 CASTLEGLEN RD NE,629,GJ,Calgary,Alberta,Canada
18 & 20 CASTLEGLEN RD NE HOUSING,182 TEMPLEGREEN DR NE,222,GJ,Calgary,Alberta,Canada
182 & 184 TEMPLEGREEN DR NE HOUSING,1827 16A ST SW,190,GJ,Calgary,Alberta,Canada
1827 16A ST SW HOUSING,183 CEDARDALE RD SW,2029,GJ,Calgary,Alberta,Canada
183 & 185 CEDARDALE RD SW HOUSING,11 1840 RANCHLANDS WY NW,233,GJ,Calgary,Alberta,Canada
1840 RANCHLANDS WY NW HOUSING,187 FALSHIRE DR NE,1135,GJ,Calgary,Alberta,Canada
187 FALSHIRE DR NE HOUSING,187 FALTON WY NE,103,GJ,Calgary,Alberta,Canada
187 FALTON WY NE HOUSING,189 FALSHIRE DR NE,104,GJ,Calgary,Alberta,Canada
189 FALSHIRE DR NE HOUSING,18 RADCLIFFE CR SE,127,GJ,Calgary,Alberta,Canada
18 RADCLIFFE CR SE HOUSING,1918 8 AV SE,505,GJ,Calgary,Alberta,Canada
1918 8 AV SE HOUSING,1920 29 ST SW,359,GJ,Calgary,Alberta,Canada
1920 29 ST SW HOUSING,196 DOVERGLEN CR SE,1193,GJ,Calgary,Alberta,Canada
#19-25 7000 RANCHERO RD NW HOUSING,200 DOVERGLEN CR SE,673,GJ,Calgary,Alberta,Canada
194 & 196 DOVERGLEN CR SE HOUSING,19 ERIN GROVE CL SE,177,GJ,Calgary,Alberta,Canada
198 & 200 DOVERGLEN CR SE HOUSING,19 RADCLIFFE CL SE,138,GJ,Calgary,Alberta,Canada
19 ERIN GROVE CL SE HOUSING,19 RANCHERO GR NW,154,GJ,Calgary,Alberta,Canada
19 RADCLIFFE CL SE HOUSING,#200 6704 6 ST SW,401,GJ,Calgary,Alberta,Canada
19 RANCHERO GR NW HOUSING,#200 816 MCDOUGALL RD NE,394,GJ,Calgary,Alberta,Canada
#200 6704 6 ST SW,2011 36 ST SE,112,GJ,Calgary,Alberta,Canada
#200 816 MCDOUGALL RD NE HOUSING,204 DOVERGLEN CR SE,352,GJ,Calgary,Alberta,Canada
2011 36 ST SE HOUSING,208 RADLEY PL SE,300,GJ,Calgary,Alberta,Canada
202 & 204 DOVERGLEN CR SE HOUSING,#20-25 2730 19 AV SE,226,GJ,Calgary,Alberta,Canada
202-208 RADLEY PL SE HOUSING,208 DOVERGLEN CR SE,285,GJ,Calgary,Alberta,Canada
#20-25 2730 19 AV SE HOUSING,207 CEDARDALE RD SW,315,GJ,Calgary,Alberta,Canada
206 & 208 DOVERGLEN CR SE HOUSING,207 ERIN MOUNT CR SE,152,GJ,Calgary,Alberta,Canada
207 & 209 CEDARDALE RD SW HOUSING,207 FALDALE CL NE,231,GJ,Calgary,Alberta,Canada
207 ERIN MOUNT CR SE HOUSING,208 ERIN CROFT CR SE,143,GJ,Calgary,Alberta,Canada
207 FALDALE CL NE HOUSING,20 ERIN CROFT GR SE,142,GJ,Calgary,Alberta,Canada
208 ERIN CROFT CR SE HOUSING,20 FALTON ME NE,73,GJ,Calgary,Alberta,Canada
20 ERIN CROFT GR SE HOUSING,20 LINCOLN WY SW,109,GJ,Calgary,Alberta,Canada
20 FALTON ME NE HOUSING,20 PENWORTH CL SE,116,GJ,Calgary,Alberta,Canada
20 LINCOLN WY SW HOUSING,210 15 AV NE,2271,GJ,Calgary,Alberta,Canada
20 PENWORTH CL SE HOUSING,212 DOVERGLEN CR SE,157,GJ,Calgary,Alberta,Canada
210 15 AV NE HOUSING,21 FALBURY CR NE,225,GJ,Calgary,Alberta,Canada
210 & 212 DOVERGLEN CR SE HOUSING,2222 VERMILLION ST NE,158,GJ,Calgary,Alberta,Canada
21 & 23 FALBURY CR NE HOUSING,24 CASTLEGLEN RD NE,178,GJ,Calgary,Alberta,Canada
2222 VERMILLION ST NE HOUSING,22 CASTLEPARK WY NE,2947,GJ,Calgary,Alberta,Canada
22 & 24 CASTLEGLEN RD NE HOUSING,2226 30 ST SW,168,GJ,Calgary,Alberta,Canada
22 & 24 CASTLEPARK WY NE HOUSING,2234 30 ST SW,169,GJ,Calgary,Alberta,Canada
2226-2230 30 ST SW HOUSING,2240 30 ST SW,181,GJ,Calgary,Alberta,Canada
2234-2238 30 ST SW HOUSING,225 14 AV SW,244,GJ,Calgary,Alberta,Canada
2240 & 2242 30 ST SW HOUSING,230 5 AV SE,159,GJ,Calgary,Alberta,Canada
225 14 AV SW HOUSING,27 DEERPOINT RD SE,728,GJ,Calgary,Alberta,Canada
230 5 AV SE HOUSING & 433 MACLEOD TR SE HOUSING,236 RADLEY PL SE,16065,GJ,Calgary,Alberta,Canada
23 & 27 DEERPOINT RD SE HOUSING,23 FALCHURCH PL NE,166,GJ,Calgary,Alberta,Canada
236 RADLEY PL SE HOUSING,2431 39 ST SE,493,GJ,Calgary,Alberta,Canada
23 FALCHURCH PL NE HOUSING,2443 48 ST SE,125,GJ,Calgary,Alberta,Canada
2431 39 ST SE HOUSING,2444 47 ST SE,181,GJ,Calgary,Alberta,Canada
2441-2445 48 ST SE HOUSING,247 PENSVILLE CL SE,372,GJ,Calgary,Alberta,Canada
2442 & 2444 47 ST SE HOUSING,249 ABALONE PL NE,215,GJ,Calgary,Alberta,Canada
247 PENSVILLE CL SE HOUSING,2513 14 AV SE,74,GJ,Calgary,Alberta,Canada
249 & 251 ABALONE PL NE HOUSING,2712 41 ST SE,187,GJ,Calgary,Alberta,Canada
2513 14 AV SE HOUSING,2804 13 AV SE,313,GJ,Calgary,Alberta,Canada
2712 41 ST SE HOUSING,4303 DOVERWOOD PL SE,174,GJ,Calgary,Alberta,Canada
2804 13 AV SE HOUSING,281 PENSVILLE CL SE,581,GJ,Calgary,Alberta,Canada
2804 41 ST SE HOUSING,28 ABINGDON CO NE,160,GJ,Calgary,Alberta,Canada
281 PENSVILLE CL SE HOUSING,28 FALTON RI NE,108,GJ,Calgary,Alberta,Canada
28 ABINGDON CO NE HOUSING,28 FONDA DR SE,109,GJ,Calgary,Alberta,Canada
28 FALTON RI NE HOUSING,28 RADCLIFFE CO SE,132,GJ,Calgary,Alberta,Canada
28 FONDA DR SE HOUSING,29 TEMPLETON BA NE,611,GJ,Calgary,Alberta,Canada
28 RADCLIFFE CO SE HOUSING,29 ERIN RIDGE RD SE,329,GJ,Calgary,Alberta,Canada
29 & 31 TEMPLETON BA NE HOUSING,3004 29A ST SE,245,GJ,Calgary,Alberta,Canada
29 ERIN RIDGE RD SE HOUSING,3005 30A ST SE,117,GJ,Calgary,Alberta,Canada
3004 29A ST SE HOUSING,3007 28A ST SE,188,GJ,Calgary,Alberta,Canada
3005 30A ST SE HOUSING,3008 29A ST SE,95,GJ,Calgary,Alberta,Canada
3007 28A ST SE HOUSING,3011 32A ST SE,126,GJ,Calgary,Alberta,Canada
3008 29A ST SE HOUSING,3009 30A ST SE,130,GJ,Calgary,Alberta,Canada
3009 & 3011 32A ST SE HOUSING,3012 33A ST SE,214,GJ,Calgary,Alberta,Canada
3009 30A ST SE HOUSING,3011 28A ST SE,128,GJ,Calgary,Alberta,Canada
3010 & 3012 33A ST SE HOUSING,3011 30A ST SE,210,GJ,Calgary,Alberta,Canada
3011 28A ST SE HOUSING,3012 29A ST SE,135,GJ,Calgary,Alberta,Canada
3011 30A ST SE HOUSING,303 FALCONRIDGE CR NE,239,GJ,Calgary,Alberta,Canada
3012 29A ST SE HOUSING,3013 28A ST SE,285,GJ,Calgary,Alberta,Canada
301-313 FALCONRIDGE CR NE HOUSING,3015 32A ST SE,611,GJ,Calgary,Alberta,Canada
3013 28A ST SE HOUSING,3014 29A ST SE,289,GJ,Calgary,Alberta,Canada
3013 & 3015 32A ST SE HOUSING,3016 33A ST SE,235,GJ,Calgary,Alberta,Canada
3014 29A ST SE HOUSING,3016 23 AV SW,206,GJ,Calgary,Alberta,Canada
3014 & 3016 33A ST SE HOUSING,3019 32A ST SE,243,GJ,Calgary,Alberta,Canada
3016-3028 23 AV SW HOUSING,3017 30A ST SE,374,GJ,Calgary,Alberta,Canada
3017 & 3019 32A ST SE HOUSING,3020 33A ST SE,274,GJ,Calgary,Alberta,Canada
3017 30A ST SE HOUSING,3019 28A ST SE,232,GJ,Calgary,Alberta,Canada
3018 & 3020 33A ST SE HOUSING,3020 29A ST SE,226,GJ,Calgary,Alberta,Canada
3019 28A ST SE HOUSING,3021 30A ST SE,279,GJ,Calgary,Alberta,Canada
3020 29A ST SE HOUSING,30 TEMPLEBY WY NE,240,GJ,Calgary,Alberta,Canada
3021 30A ST SE HOUSING,#30-35 2730 19 AV SE,276,GJ,Calgary,Alberta,Canada
30 & 32 TEMPLEBY WY NE HOUSING,303 57 AV SW,184,GJ,Calgary,Alberta,Canada
#30-35 2730 19 AV SE HOUSING,308 15 AV NE,282,GJ,Calgary,Alberta,Canada
303 57 AV SW HOUSING,315 WHITLOCK WY NE,9477,GJ,Calgary,Alberta,Canada
308 15 AV NE HOUSING,31 DEERPOINT RD SE,947,GJ,Calgary,Alberta,Canada
313 & 315 WHITLOCK WY NE HOUSING,315 FALCONRIDGE CR NE,206,GJ,Calgary,Alberta,Canada
31 & 35 DEERPOINT RD SE HOUSING,316 20 AV SW,196,GJ,Calgary,Alberta,Canada
315-325 FALCONRIDGE CR NE HOUSING,321 WHITLOCK WY NE,455,GJ,Calgary,Alberta,Canada
316 20 AV SW HOUSING,31 FAY RD SE,1742,GJ,Calgary,Alberta,Canada
319 & 321 WHITLOCK WY NE HOUSING,3202 30A AV SE,208,GJ,Calgary,Alberta,Canada
31 FAY RD SE HOUSING,3202 32A AV SE,143,GJ,Calgary,Alberta,Canada
3202 30A AV SE HOUSING,3203 33A AV SE,72,GJ,Calgary,Alberta,Canada
3202 32A AV SE HOUSING,3206 32A AV SE,115,GJ,Calgary,Alberta,Canada
3203 33A AV SE HOUSING,3207 31A AV SE,92,GJ,Calgary,Alberta,Canada
3206 32A AV SE HOUSING,3207 33A AV SE,81,GJ,Calgary,Alberta,Canada
3207 31A AV SE HOUSING,3208 32A AV SE,176,GJ,Calgary,Alberta,Canada
3207 33A AV SE HOUSING,3209 31A AV SE,84,GJ,Calgary,Alberta,Canada
3208 32A AV SE HOUSING,3211 33A AV SE,232,GJ,Calgary,Alberta,Canada
3209 & 3211 31A AV SE HOUSING,3212 32A AV SE,133,GJ,Calgary,Alberta,Canada
3211 33A AV SE HOUSING,3213 33A AV SE,241,GJ,Calgary,Alberta,Canada
3212 32A AV SE HOUSING,3213A 31A AV SE,222,GJ,Calgary,Alberta,Canada
3213 33A AV SE HOUSING,3215 31A AV SE,190,GJ,Calgary,Alberta,Canada
3213A & 3213B 31A AV SE HOUSING,3216 30A AV SE,169,GJ,Calgary,Alberta,Canada
3215 & 3217 31A AV SE HOUSING,3216 32A AV SE,182,GJ,Calgary,Alberta,Canada
3216 30A AV SE HOUSING,3217 33A AV SE,236,GJ,Calgary,Alberta,Canada
3216 32A AV SE HOUSING,3219 31A AV SE,304,GJ,Calgary,Alberta,Canada
3217 33A AV SE HOUSING,3222 30A AV SE,241,GJ,Calgary,Alberta,Canada
3219 31A AV SE HOUSING,3229 56 ST NE,249,GJ,Calgary,Alberta,Canada
3222 30A AV SE HOUSING,325 10 ST NW,115,GJ,Calgary,Alberta,Canada
3229 56 ST NE HOUSING,327 FALCONRIDGE CR NE,1366,GJ,Calgary,Alberta,Canada
325 10 ST NW HOUSING,327 FALSHIRE DR NE,5097,GJ,Calgary,Alberta,Canada
327-339 FALCONRIDGE CR NE HOUSING,32 RADCLIFFE CO SE,614,GJ,Calgary,Alberta,Canada
327 FALSHIRE DR NE HOUSING,330 2 AV NE,130,GJ,Calgary,Alberta,Canada
32 RADCLIFFE CO SE HOUSING,333 17 AV NW,212,GJ,Calgary,Alberta,Canada
330 2 AV NE HOUSING,339 FALSHIRE WY NE,2126,GJ,Calgary,Alberta,Canada
333 17 AV NW HOUSING,3401 CENTRE ST NW,1855,GJ,Calgary,Alberta,Canada
339 FALSHIRE WY NE HOUSING,343 WHITLOCK WY NE,96,GJ,Calgary,Alberta,Canada
3401 CENTRE ST NW HOUSING,36 FALMEAD BA NE,616,GJ,Calgary,Alberta,Canada
341 & 343 WHITLOCK WY NE HOUSING,3454 30A AV SE,194,GJ,Calgary,Alberta,Canada
34 & 36 FALMEAD BA NE HOUSING,3456 30A AV SE,189,GJ,Calgary,Alberta,Canada
3454 30A AV SE HOUSING,3456 32A AV SE,163,GJ,Calgary,Alberta,Canada
3456 30A AV SE HOUSING,3461 31A AV SE,226,GJ,Calgary,Alberta,Canada
3456 32A AV SE HOUSING,3461 33A AV SE,180,GJ,Calgary,Alberta,Canada
3461 31A AV SE HOUSING,3462 30A AV SE,300,GJ,Calgary,Alberta,Canada
3461 33A AV SE HOUSING,3462 32A AV SE,193,GJ,Calgary,Alberta,Canada
3462 30A AV SE HOUSING,3463 33A AV SE,233,GJ,Calgary,Alberta,Canada
3462 32A AV SE HOUSING,3466 30 AV SE,221,GJ,Calgary,Alberta,Canada
3463 33A AV SE HOUSING,3464 32A AV SE,218,GJ,Calgary,Alberta,Canada
3466 30A AV SE HOUSING,3467 31A AV SE,279,GJ,Calgary,Alberta,Canada
3466 32A AV SE HOUSING,3469 33A AV SE,254,GJ,Calgary,Alberta,Canada
3467 31A AV SE HOUSING,3470 30A AV SE,269,GJ,Calgary,Alberta,Canada
3469 33A AV SE HOUSING,3473 33A AV SE,233,GJ,Calgary,Alberta,Canada
3470 30A AV SE HOUSING,3474 30A AV SE,112,GJ,Calgary,Alberta,Canada
3473 33A AV SE HOUSING,3477 33A AV SE,104,GJ,Calgary,Alberta,Canada
3474 30A AV SE HOUSING,34 ERIN RIDGE PL SE,101,GJ,Calgary,Alberta,Canada
3477 33A AV SE HOUSING,3534 CEDARILLE DR SW,116,GJ,Calgary,Alberta,Canada
34 ERIN RIDGE PL SE HOUSING,3542 CEDARILLE DR SW,76,GJ,Calgary,Alberta,Canada
3534 & 3536 CEDARILLE DR SW HOUSING,3546 CEDARILLE DR SW,340,GJ,Calgary,Alberta,Canada
3542 & 3544 CEDARILLE DR SW HOUSING,359 WHITLOCK WY NE,194,GJ,Calgary,Alberta,Canada
3546 & 3548 CEDARILLE DR SW HOUSING,3601 28 AV SE,265,GJ,Calgary,Alberta,Canada
357 & 359 WHITLOCK WY NE HOUSING,3605 28 AV SE,178,GJ,Calgary,Alberta,Canada
3601 & 3603 28 AV SE HOUSING,3609 28 AV SE,173,GJ,Calgary,Alberta,Canada
3605 & 3607 28 AV SE HOUSING,3610 CEDARILLE DR SW,236,GJ,Calgary,Alberta,Canada
3609 & 3611 28 AV SE HOUSING,3613 28 AV SE,189,GJ,Calgary,Alberta,Canada
3610 & 3612 CEDARILLE DR SW HOUSING,3617 28 AV SE,215,GJ,Calgary,Alberta,Canada
3613 & 3615 28 AV SE HOUSING,3621 28 AV SE,163,GJ,Calgary,Alberta,Canada
3617 & 3619 28 AV SE HOUSING,3625 28 AV SE,193,GJ,Calgary,Alberta,Canada
3621 & 3623 28 AV SE HOUSING,3629 28 AV SE,133,GJ,Calgary,Alberta,Canada
3625 & 3627 28 AV SE HOUSING,3633 28 AV SE,193,GJ,Calgary,Alberta,Canada
3629 & 3631 28 AV SE HOUSING,36 ABINGDON CO NE,182,GJ,Calgary,Alberta,Canada
3633 & 3635 28 AV SE HOUSING,36 RADCLIFFE CO SE,152,GJ,Calgary,Alberta,Canada
36 ABINGDON CO NE HOUSING,37 ERIN RIDGE RD SE,104,GJ,Calgary,Alberta,Canada
36 RADCLIFFE CO SE HOUSING,3824 PARKHILL PL SW,466,GJ,Calgary,Alberta,Canada
37 ERIN RIDGE RD SE HOUSING,40 FALMEAD BA NE,98,GJ,Calgary,Alberta,Canada
3824 PARKHILL PL SW HOUSING,3902 44 AV NE,474,GJ,Calgary,Alberta,Canada
38 & 40 FALMEAD BA NE HOUSING,43 DEERPOINT RD SE,167,GJ,Calgary,Alberta,Canada
3902 & 3904 44 AV NE HOUSING,39 FALSHIRE WY NE,262,GJ,Calgary,Alberta,Canada
39 & 43 DEERPOINT RD SE HOUSING,4006 WORCESTER DR SW,146,GJ,Calgary,Alberta,Canada
39 FALSHIRE WY NE HOUSING,4012 WORCESTER DR SW,106,GJ,Calgary,Alberta,Canada
4006 WORCESTER DR SW HOUSING,4018 WORCESTER DR SW,362,GJ,Calgary,Alberta,Canada
4012 WORCESTER DR SW HOUSING,40 38A AV SW,373,GJ,Calgary,Alberta,Canada
4018 WORCESTER DR SW HOUSING,#40-45 2730 19 AV SE,391,GJ,Calgary,Alberta,Canada
40 38A AV SW HOUSING,411 14 ST NW,2648,GJ,Calgary,Alberta,Canada
#40-45 2730 19 AV SE HOUSING,41 FALBURY CR NE,358,GJ,Calgary,Alberta,Canada
411 14 ST NW HOUSING,419 ABADAN PL NE,6650,GJ,Calgary,Alberta,Canada
41 & 43 FALBURY CR NE HOUSING,424 2 AV NE,173,GJ,Calgary,Alberta,Canada
419 ABADAN PL NE HOUSING,4303 WHITEHORN DR NE,113,GJ,Calgary,Alberta,Canada
424 2 AV NE HOUSING,4307 DOVERWOOD PL SE,1436,GJ,Calgary,Alberta,Canada
4303 & 4307 WHITEHORN DR NE HOUSING,4308 DOVERWOOD PL SE,145,GJ,Calgary,Alberta,Canada
4307 DOVERWOOD PL SE HOUSING,4312 DOVERWOOD PL SE,193,GJ,Calgary,Alberta,Canada
4308 DOVERWOOD PL SE HOUSING,4311 WHITEHORN DR NE,188,GJ,Calgary,Alberta,Canada
4310 DOVERWOOD PL SE HOUSING,4311 DOVERWOOD PL SE,141,GJ,Calgary,Alberta,Canada
4311 & 4315 WHITEHORN DR NE HOUSING,4313 DOVERWOOD PL SE,155,GJ,Calgary,Alberta,Canada
4311 DOVERWOOD PL SE HOUSING,4314 DOVERWOOD PL SE,152,GJ,Calgary,Alberta,Canada
4313 DOVERWOOD PL SE HOUSING,4317 DOVERWOOD PL ASE,215,GJ,Calgary,Alberta,Canada
4314 DOVERWOOD PL SE HOUSING,4318 DOVERWOOD PL SE,125,GJ,Calgary,Alberta,Canada
4317 DOVERWOOD PL SE HOUSING,4323 WHITEHORN DR NE,169,GJ,Calgary,Alberta,Canada
4318 DOVERWOOD PL SE HOUSING,4321 DOVERWOOD PL SE,219,GJ,Calgary,Alberta,Canada
4319 & 4323 WHITEHORN DR NE HOUSING,4322 DOVERWOOD PL SE,180,GJ,Calgary,Alberta,Canada
4321 DOVERWOOD PL SE HOUSING,4327 BOWNESS RD NW,173,GJ,Calgary,Alberta,Canada
4322 DOVERWOOD PL SE HOUSING,4325 DOVERWOOD PL SE,165,GJ,Calgary,Alberta,Canada
4325 & 4327 BOWNESS RD NW HOUSING,4326 DOVERWOOD PL SE,204,GJ,Calgary,Alberta,Canada
4325 DOVERWOOD PL SE HOUSING,4331 WHITEHORN DR NE,175,GJ,Calgary,Alberta,Canada
4326 DOVERWOOD PL SE HOUSING,4332 DOVERWOOD PL SE,211,GJ,Calgary,Alberta,Canada
4327 & 4331 WHITEHORN DR NE HOUSING,4339 WHITEHORN DR NE,195,GJ,Calgary,Alberta,Canada
4332 DOVERWOOD PL SE HOUSING,4336 DOVERWOOD PL SE,198,GJ,Calgary,Alberta,Canada
4335 & 4339 WHITEHORN DR NE HOUSING,4347 WHITEHORN DR NE,185,GJ,Calgary,Alberta,Canada
4336 DOVERWOOD PL SE HOUSING,4355 WHITEHORN DR NE,201,GJ,Calgary,Alberta,Canada
4343 & 4347 WHITEHORN DR NE HOUSING,4363 WHITEHORN DR NE,153,GJ,Calgary,Alberta,Canada
4351 & 4355 WHITEHORN DR NE HOUSING,444 ABADAN PL NE,130,GJ,Calgary,Alberta,Canada
4359 & 4363 WHITEHORN DR NE HOUSING,4502 RICHMOND RD SW,223,GJ,Calgary,Alberta,Canada
444 ABADAN PL NE HOUSING,4601 MEMORIAL DR SE,142,GJ,Calgary,Alberta,Canada
4500 & 4502 RICHMOND RD SW HOUSING,4605 MEMORIAL DR SE,189,GJ,Calgary,Alberta,Canada
4601 MEMORIAL DR SE HOUSING,4611 MEMORIAL DR SE,182,GJ,Calgary,Alberta,Canada
4605 MEMORIAL DR SE HOUSING,461 23 AV NE,170,GJ,Calgary,Alberta,Canada
4611 MEMORIAL DR SE HOUSING,4615 MEMORIAL DR SE,169,GJ,Calgary,Alberta,Canada
461 23 AV NE HOUSING,4617 MEMORIAL DR SE,364,GJ,Calgary,Alberta,Canada
4615 MEMORIAL DR SE HOUSING,4623 MEMORIAL DR SE,199,GJ,Calgary,Alberta,Canada
4617 MEMORIAL DR SE HOUSING,4625 MEMORIAL DR SE,241,GJ,Calgary,Alberta,Canada
4623 MEMORIAL DR SE HOUSING,4631 MEMORIAL DR SE,193,GJ,Calgary,Alberta,Canada
4625 MEMORIAL DR SE HOUSING,4633 MEMORIAL DR SE,200,GJ,Calgary,Alberta,Canada
4631 MEMORIAL DR SE HOUSING,4637 MEMORIAL DR SE,219,GJ,Calgary,Alberta,Canada
4633 MEMORIAL DR SE HOUSING,4641 MEMORIAL DR SE,204,GJ,Calgary,Alberta,Canada
4637 MEMORIAL DR SE HOUSING,4645 MEMORIAL DR SE,146,GJ,Calgary,Alberta,Canada
4641 MEMORIAL DR SE HOUSING,48 DEER RIDGE WY SE,218,GJ,Calgary,Alberta,Canada
4645 MEMORIAL DR SE HOUSING,4651 MEMORIAL DR SE,169,GJ,Calgary,Alberta,Canada
46 & 48 DEER RIDGE WY SE HOUSING,465 23 AV NE,164,GJ,Calgary,Alberta,Canada
4651 MEMORIAL DR SE HOUSING,47 RADCLIFFE CL SE,186,GJ,Calgary,Alberta,Canada
465 23 AV NE HOUSING,4829 60 ST NE,295,GJ,Calgary,Alberta,Canada
47 RADCLIFFE CL SE HOUSING,4847 DALTON DR NW,586,GJ,Calgary,Alberta,Canada
4829 & 4831 60 ST NE HOUSING,4848 DALTON DR NW,217,GJ,Calgary,Alberta,Canada
4847 DALTON DR NW HOUSING,48 ABERGALE CL NE,2906,GJ,Calgary,Alberta,Canada
4848 DALTON DR NW HOUSING,48 ABINGDON CR NE,2442,GJ,Calgary,Alberta,Canada
48 ABERGALE CL NE HOUSING,48 CEDARWOOD RI SW,1083,GJ,Calgary,Alberta,Canada
48 ABINGDON CR NE HOUSING,49 CASTLERIDGE DR NE,114,GJ,Calgary,Alberta,Canada
48 CEDARWOOD RI SW HOUSING,51 FONDA DR SE,239,GJ,Calgary,Alberta,Canada
49 & 51 CASTLERIDGE DR NE HOUSING,4 RADCLIFFE CO SE,176,GJ,Calgary,Alberta,Canada
49 & 51 FONDA DR SE HOUSING,503 ABADAN PL NE,240,GJ,Calgary,Alberta,Canada
4 RADCLIFFE CO SE HOUSING,507 ABADAN PL NE,316,GJ,Calgary,Alberta,Canada
501 & 503 ABADAN PL NE HOUSING,#50-55 2730 19 AV SE,227,GJ,Calgary,Alberta,Canada
505 & 507 ABADAN PL NE HOUSING,508 72 AV NW,216,GJ,Calgary,Alberta,Canada
#50-55 2730 19 AV SE HOUSING,511 ABADAN PL NE,318,GJ,Calgary,Alberta,Canada
508 72 AV NW HOUSING,511 ABALONE PL NE,1880,GJ,Calgary,Alberta,Canada
509 & 511 ABADAN PL NE HOUSING,515 ABADAN PL NE,163,GJ,Calgary,Alberta,Canada
511 ABALONE PL NE HOUSING,519 ABADAN PL NE,79,GJ,Calgary,Alberta,Canada
513 & 515 ABADAN PL NE HOUSING,519 ABALONE PL NE,236,GJ,Calgary,Alberta,Canada
517 & 519 ABADAN PL NE HOUSING,520 RADLEY WY SE,196,GJ,Calgary,Alberta,Canada
519 ABALONE PL NE HOUSING,523 ABADAN PL NE,80,GJ,Calgary,Alberta,Canada
520 RADLEY WY SE HOUSING,5226 19 AV NW,256,GJ,Calgary,Alberta,Canada
521 & 523 ABADAN PL NE HOUSING,5232 19 AV NW,212,GJ,Calgary,Alberta,Canada
5226 19 AV NW HOUSING,5234 19 AV NW,220,GJ,Calgary,Alberta,Canada
5230 19 AV NW HOUSING,5241 19 AV NW,241,GJ,Calgary,Alberta,Canada
5234 19 AV NW HOUSING,5242 19 AV NW,192,GJ,Calgary,Alberta,Canada
5241 19 AV NW HOUSING,5245 19 AV NW,229,GJ,Calgary,Alberta,Canada
5242 19 AV NW HOUSING,5247 19 AV NW,193,GJ,Calgary,Alberta,Canada
5245 19 AV NW HOUSING,5253 19 AV NW,219,GJ,Calgary,Alberta,Canada
5247 19 AV NW HOUSING,5255 19 AV NW,353,GJ,Calgary,Alberta,Canada
5253 19 AV NW HOUSING,527 ABADAN PL NE,202,GJ,Calgary,Alberta,Canada
5255 19 AV NW HOUSING,5259 19 AV NW,285,GJ,Calgary,Alberta,Canada
525 & 527 ABADAN PL NE HOUSING,5263 19 AV NW,173,GJ,Calgary,Alberta,Canada
5259 19 AV NW HOUSING,5267 19 AV NW,175,GJ,Calgary,Alberta,Canada
5263 19 AV NW HOUSING,529 RADLEY WY SE,228,GJ,Calgary,Alberta,Canada
5267 19 AV NW HOUSING,56 RADCLIFFE CR SE,194,GJ,Calgary,Alberta,Canada
527-535 RADLEY WY SE HOUSING,55 FONDA DR SE,392,GJ,Calgary,Alberta,Canada
52 RADCLIFFE CO SE HOUSING,53 ERIN RIDGE RD SE,343,GJ,Calgary,Alberta,Canada
53 & 55 FONDA DR SE HOUSING,56 DEER RIDGE WY SE,169,GJ,Calgary,Alberta,Canada
53 ERIN RIDGE RD SE HOUSING,55 ERIN DALE CR SE,182,GJ,Calgary,Alberta,Canada
54 & 56 DEER RIDGE WY SE HOUSING,56 CASTLEBROOK WY NE,131,GJ,Calgary,Alberta,Canada
55 ERIN DALE CR SE HOUSING,5717 2 ST SW,125,GJ,Calgary,Alberta,Canada
56 CASTLEBROOK WY NE HOUSING,5719 68 ST NE,117,GJ,Calgary,Alberta,Canada
56 RADCLIFFE CR SE HOUSING,5723 68 ST NE,145,GJ,Calgary,Alberta,Canada
5717 2 ST SW HOUSING,5727 68 ST NE,5176,GJ,Calgary,Alberta,Canada
5719 & 5721 68 ST NE HOUSING,5731 68 ST NE,182,GJ,Calgary,Alberta,Canada
5723 & 5725 68 ST NE HOUSING,5735 68 ST NE,217,GJ,Calgary,Alberta,Canada
5727 & 5729 68 ST NE HOUSING,5743 68 ST NE,209,GJ,Calgary,Alberta,Canada
5731 & 5733 68 ST NE HOUSING,59 CASTLEPARK RD NE,228,GJ,Calgary,Alberta,Canada
5735 & 5737 68 ST NE HOUSING,59 FONDA DR SE,182,GJ,Calgary,Alberta,Canada
5743 & 5745 68 ST NE HOUSING,7 CASTLEPARK WY NE,206,GJ,Calgary,Alberta,Canada
5757 2 ST SW HOUSING,59 BERKLEY WY NW,2621,GJ,Calgary,Alberta,Canada
57 & 59 CASTLEPARK RD NE HOUSING,#60-65 2730 19 AV SE,198,GJ,Calgary,Alberta,Canada
57 & 59 FONDA DR SE HOUSING,60 CASTLERIDGE DR NE,194,GJ,Calgary,Alberta,Canada
5 & 7 CASTLEPARK WY NE HOUSING,6111 BOWNESS RD NW,134,GJ,Calgary,Alberta,Canada
59 BERKLEY WY NW HOUSING,6123 BOWNESS RD NW,3996,GJ,Calgary,Alberta,Canada
#60-65 2730 19 AV SE HOUSING,63 CASTLEPARK RD NE,269,GJ,Calgary,Alberta,Canada
60 CASTLERIDGE DR NE HOUSING,63 FONDA DR SE,86,GJ,Calgary,Alberta,Canada
6111 BOWNESS RD NW HOUSING,61 ABERDARE RD NE,1854,GJ,Calgary,Alberta,Canada
6123 BOWNESS RD NW HOUSING,6236 BOWNESS RD NW,638,GJ,Calgary,Alberta,Canada
61 & 63 CASTLEPARK RD NE HOUSING,6303 CENTRE ST NW,204,GJ,Calgary,Alberta,Canada
61 & 63 FONDA DR SE HOUSING,6504 35 AV NW,162,GJ,Calgary,Alberta,Canada
61 ABERDARE RD NE HOUSING,67 CASTLEPARK RD NE,117,GJ,Calgary,Alberta,Canada
6236 BOWNESS RD NW HOUSING,67 FONDA DR SE,560,GJ,Calgary,Alberta,Canada
6301-6307 CENTRE ST NW HOUSING,6803 CENTRE ST NW,307,GJ,Calgary,Alberta,Canada
6504 35 AV NW HOUSING,6835 CENTRE ST NW,703,GJ,Calgary,Alberta,Canada
65 & 67 CASTLEPARK RD NE HOUSING,68 ABINGDON CO NE,189,GJ,Calgary,Alberta,Canada
65 & 67 FONDA DR SE HOUSING,68 ERIN RIDGE RD SE,191,GJ,Calgary,Alberta,Canada
6803 CENTRE ST NW HOUSING,8 FALMEAD PL NE,1967,GJ,Calgary,Alberta,Canada
6835 CENTRE ST NW HOUSING,6900 RANCHERO RD NW,1302,GJ,Calgary,Alberta,Canada
68 ABINGDON CO NE HOUSING,71 CASTLEPARK RD NE,133,GJ,Calgary,Alberta,Canada
68 ERIN RIDGE RD SE HOUSING,71 FONDA DR SE,108,GJ,Calgary,Alberta,Canada
6 & 8 FALMEAD PL NE HOUSING,7003 24 ST SE,172,GJ,Calgary,Alberta,Canada
6900 RANCHERO RD NW HOUSING,7005 24 ST SE,1918,GJ,Calgary,Alberta,Canada
69 & 71 CASTLEPARK RD NE HOUSING,#70-75 2730 19 AV SE,203,GJ,Calgary,Alberta,Canada
69 & 71 FONDA DR SE HOUSING,70 ERIN RIDGE RD SE,150,GJ,Calgary,Alberta,Canada
7001 & 7003 24 ST SE HOUSING,11 DEERPOINT RD SE,194,GJ,Calgary,Alberta,Canada
7005 & 7007 24 ST SE HOUSING,#7-12 15 NORQUAY CO NW,130,GJ,Calgary,Alberta,Canada
#70-73 2730 19 AV SE HOUSING,72 ABERGALE CL NE,245,GJ,Calgary,Alberta,Canada
70 ERIN RIDGE RD SE HOUSING,72 FALTON RI NE,84,GJ,Calgary,Alberta,Canada
7 & 11 DEERPOINT RD SE HOUSING,72 PENWORTH CL SE,177,GJ,Calgary,Alberta,Canada
#7-12 15 NORQUAY CO NW HOUSING,75 CASTLEPARK RD NE,552,GJ,Calgary,Alberta,Canada
72 ABERGALE CL NE HOUSING,75 FONDA DR SE,853,GJ,Calgary,Alberta,Canada
72 FALTON RI NE HOUSING,74 FALCONRIDGE PL NE,122,GJ,Calgary,Alberta,Canada
72 PENWORTH CL SE HOUSING,7503 BOWNESS RD NW,85,GJ,Calgary,Alberta,Canada
73 & 75 CASTLEPARK RD NE HOUSING,750 5 ST SE,190,GJ,Calgary,Alberta,Canada
73 & 75 FONDA DR SE HOUSING,7507 BOWNESS RD NW,142,GJ,Calgary,Alberta,Canada
74 & 76 FALCONRIDGE PL NE HOUSING,7511 BOWNESS RD NW,209,GJ,Calgary,Alberta,Canada
7503 BOWNESS RD NW HOUSING,7515 BOWNESS RD NW,238,GJ,Calgary,Alberta,Canada
750 5 ST SE HOUSING,7521 BOWNESS RD NW,14881,GJ,Calgary,Alberta,Canada
7507 BOWNESS RD NW HOUSING,7525 BOWNESS RD NW,278,GJ,Calgary,Alberta,Canada
7511 BOWNESS RD NW HOUSING,7529 BOWNESS RD NW,260,GJ,Calgary,Alberta,Canada
7513 BOWNESS RD NW HOUSING,7533 BOWNESS RD NW,178,GJ,Calgary,Alberta,Canada
7521 BOWNESS RD NW HOUSING,7537 BOWNESS RD NW,171,GJ,Calgary,Alberta,Canada
7527 BOWNESS RD NW HOUSING,7541 BOWNESS RD NW,197,GJ,Calgary,Alberta,Canada
7529 BOWNESS RD NW HOUSING,7545 BOWNESS RD NW,220,GJ,Calgary,Alberta,Canada
7533 BOWNESS RD NW HOUSING,75 LINCOLN WY SW,186,GJ,Calgary,Alberta,Canada
7537 BOWNESS RD NW HOUSING,7602 26A ST SE,235,GJ,Calgary,Alberta,Canada
7541 BOWNESS RD NW HOUSING,7603 27 ST SE,267,GJ,Calgary,Alberta,Canada
7545 BOWNESS RD NW HOUSING,7606 26A ST SE,211,GJ,Calgary,Alberta,Canada
75 LINCOLN WY SW HOUSING,7609 27 ST SE,2709,GJ,Calgary,Alberta,Canada
7602 26A ST SE HOUSING,7611 27 ST SE,229,GJ,Calgary,Alberta,Canada
7603 27 ST SE HOUSING,7612 26A ST SE,186,GJ,Calgary,Alberta,Canada
7606 26A ST SE HOUSING,7616 26A ST SE,201,GJ,Calgary,Alberta,Canada
7609 27 ST SE HOUSING,7617 27 ST SE,184,GJ,Calgary,Alberta,Canada
7611 27 ST SE HOUSING,7618 26A ST SE,151,GJ,Calgary,Alberta,Canada
7612 26A ST SE HOUSING,7619 27 ST SE,184,GJ,Calgary,Alberta,Canada
7616 26A ST SE HOUSING,7623 27 ST SE,180,GJ,Calgary,Alberta,Canada
7617 27 ST SE HOUSING,7624 26A ST SE,210,GJ,Calgary,Alberta,Canada
7618 26A ST SE HOUSING,7626 26A ST SE,203,GJ,Calgary,Alberta,Canada
7619 27 ST SE HOUSING,7627 27 ST SE,187,GJ,Calgary,Alberta,Canada
7623 27 ST SE HOUSING,7629 26A ST SE,230,GJ,Calgary,Alberta,Canada
7624 26A ST SE HOUSING,7630 23 ST SE,192,GJ,Calgary,Alberta,Canada
7626 26A ST SE HOUSING,7631 26A ST SE,205,GJ,Calgary,Alberta,Canada
7627 27 ST SE HOUSING,7631 27 ST SE,222,GJ,Calgary,Alberta,Canada
7629 26A ST SE HOUSING,7632 26A ST SE,165,GJ,Calgary,Alberta,Canada
7630 & 7632 23 ST SE HOUSING,7634 23 ST SE,154,GJ,Calgary,Alberta,Canada
7631 26A ST SE HOUSING,7635 26A ST SE,200,GJ,Calgary,Alberta,Canada
7631 27 ST SE HOUSING,7636 26A ST SE,194,GJ,Calgary,Alberta,Canada
7632 26A ST SE HOUSING,7639 26A ST SE,180,GJ,Calgary,Alberta,Canada
7634 & 7636 23 ST SE HOUSING,7639 27 ST SE,227,GJ,Calgary,Alberta,Canada
7635 26A ST SE HOUSING,7640 26A ST SE,204,GJ,Calgary,Alberta,Canada
7636 26A ST SE HOUSING,7645 26A ST SE,166,GJ,Calgary,Alberta,Canada
7639 26A ST SE HOUSING,7645 27 ST SE,209,GJ,Calgary,Alberta,Canada
7639 27 ST SE HOUSING,76 ABINGDON WY NE,247,GJ,Calgary,Alberta,Canada
7640 26A ST SE HOUSING,76 CASTLEDALE WY NE,179,GJ,Calgary,Alberta,Canada
7645 26A ST SE HOUSING,76 CEDARWOOD HL SW,222,GJ,Calgary,Alberta,Canada
7645 27 ST SE HOUSING,7701 BOWNESS RD NW,240,GJ,Calgary,Alberta,Canada
76 ABINGDON WY NE HOUSING,7705 BOWNESS RD NW,98,GJ,Calgary,Alberta,Canada
76 CASTLEDALE WY NE HOUSING,7709 BOWNESS RD NW,102,GJ,Calgary,Alberta,Canada
76 CEDARWOOD HL SW HOUSING,7713 BOWNESS RD NW,257,GJ,Calgary,Alberta,Canada
7701 BOWNESS RD NW HOUSING,7717 BOWNESS RD NW,182,GJ,Calgary,Alberta,Canada
7705 BOWNESS RD NW HOUSING,7721 BOWNESS RD NW,286,GJ,Calgary,Alberta,Canada
7709 BOWNESS RD NW HOUSING,77 ABERDARE RD NE,224,GJ,Calgary,Alberta,Canada
7713 BOWNESS RD NW HOUSING,7801 24 ST SE,238,GJ,Calgary,Alberta,Canada
7717 BOWNESS RD NW HOUSING,7805 24 ST SE,206,GJ,Calgary,Alberta,Canada
7721 BOWNESS RD NW HOUSING,7809 24 ST SE,175,GJ,Calgary,Alberta,Canada
77 ABERDARE RD NE HOUSING,7813 24 ST SE,97,GJ,Calgary,Alberta,Canada
7801 & 7803 24 ST SE HOUSING,7817 24 ST SE,135,GJ,Calgary,Alberta,Canada
7805 & 7807 24 ST SE HOUSING,7821 24 ST SE,132,GJ,Calgary,Alberta,Canada
7809 & 7811 24 ST SE HOUSING,78 CASTLEDALE WY NE,159,GJ,Calgary,Alberta,Canada
7813 & 7815 24 ST SE HOUSING,80 ERIN MOUNT CR SE,145,GJ,Calgary,Alberta,Canada
7817 & 7819 24 ST SE HOUSING,84 DEER RIDGE WY SE,183,GJ,Calgary,Alberta,Canada
7821 & 7823 24 ST SE HOUSING,83 ABALONE WY NE,160,GJ,Calgary,Alberta,Canada
78 CASTLEDALE WY NE HOUSING,83 ERIN WOODS PL SE,130,GJ,Calgary,Alberta,Canada
80-84 ERIN MOUNT CR SE HOUSING,8402 CENTRE ST NE,241,GJ,Calgary,Alberta,Canada
#8-13 7000 RANCHERO RD NW HOUSING,8519 BOWNESS RD NW,477,GJ,Calgary,Alberta,Canada
82 & 84 DEER RIDGE WY SE HOUSING,88 DEER RIDGE WY SE,199,GJ,Calgary,Alberta,Canada
83 ABALONE WY NE HOUSING,86 ERIN MOUNT CR SE,110,GJ,Calgary,Alberta,Canada
83 ERIN WOODS PL SE HOUSING,86 ERIN RIDGE RD SE,70,GJ,Calgary,Alberta,Canada
8402 & 8404 CENTRE ST NE HOUSING,87 ABINGDON WY NE,248,GJ,Calgary,Alberta,Canada
8519 BOWNESS RD NW HOUSING,89 FALWORTH WY NE,210,GJ,Calgary,Alberta,Canada
86 & 88 DEER RIDGE WY SE HOUSING,92 ERIN RIDGE RD SE,189,GJ,Calgary,Alberta,Canada
86-92 ERIN MOUNT CR SE HOUSING,96 CASTLEDALE WY NE,294,GJ,Calgary,Alberta,Canada
86 ERIN RIDGE RD SE HOUSING,9960 BONAVENTURE DR SE,134,GJ,Calgary,Alberta,Canada
87 ABINGDON WY NE HOUSING,9 ERIN RIDGE RD SE,96,GJ,Calgary,Alberta,Canada
89 FALWORTH WY NE HOUSING,159 ABALONE CR NE,131,GJ,Calgary,Alberta,Canada
92 ERIN RIDGE RD SE HOUSING,360 40 AV NW,104,GJ,Calgary,Alberta,Canada
96 CASTLEDALE WY NE HOUSING,83 APPLEWOOD DR SE,95,GJ,Calgary,Alberta,Canada
9960 BONAVENTURE DR SE HOUSING,15 4 ST NE,1622,GJ,Calgary,Alberta,Canada
9 ERIN RIDGE RD SE HOUSING,14812 BANNISTER RD SE,119,GJ,Calgary,Alberta,Canada
ABBEYDALE 3,1330 BERKLEY DR NW,1483,GJ,Calgary,Alberta,Canada
ALBERTA HOUSING PROJECT,736 MCDOUGALL CO NE,749,GJ,Calgary,Alberta,Canada
APPLEWOOD LANE,2611 106 AV SW,4256,GJ,Calgary,Alberta,Canada
ARMOUR BLOCK,1820 14 AV NE,2388,GJ,Calgary,Alberta,Canada
BANNISTER MANOR,6624 CENTRE ST SE,4424,GJ,Calgary,Alberta,Canada
BEDDINGTON PHASE 2,2425 69 AV SE,4428,GJ,Calgary,Alberta,Canada
BRIDGELAND PLACE,48 MCHUGH CO NE,13557,GJ,Calgary,Alberta,Canada
CEDARBRAE 2,123 DEERFIELD DR SE,1779,GJ,Calgary,Alberta,Canada
CEDAR COURT GARDENS,55 DEERPOINT RD SE,2214,GJ,Calgary,Alberta,Canada
CHC SOUTH DISTRICT OFFICE,26 CASTLERIDGE DR NE,1034,GJ,Calgary,Alberta,Canada
CRESTWOOD AFFORDABLE HOUSING,55 EDGEBURN CR NW,4033,GJ,Calgary,Alberta,Canada
CROSSROADS GARDENS - 48 MCHUGH CO NE,12 ERIN DALE CR SE,1059,GJ,Calgary,Alberta,Canada
DEERFIELD VILLAS,293 ERIN WOODS DR SE,1942,GJ,Calgary,Alberta,Canada
DEERPOINT GARDENS,1260 FALCONRIDGE DR NE,3118,GJ,Calgary,Alberta,Canada
DUPLEX - 26 & 28 CASTLERIDGE DR NE,3805 47 ST SW,201,GJ,Calgary,Alberta,Canada
EDGEBURN GARDENS,5320 35 AV SW,7521,GJ,Calgary,Alberta,Canada
ERINDALE COURT,3206 30A AV SE,113,GJ,Calgary,Alberta,Canada
ERIN WOODS,5238 19 AV NW,5739,GJ,Calgary,Alberta,Canada
FALCONRIDGE TOWNHOUSES,7519 BOWNESS RD NW,4092,GJ,Calgary,Alberta,Canada
GLENBROOK CO-OP COURT - 3805 47 ST SW,2215 LINCOLN DR SW,2859,GJ,Calgary,Alberta,Canada
GLENBROOK CO-OP COURT - 3905 47 ST SW,2029 36 ST SE,2093,GJ,Calgary,Alberta,Canada
GLENBROOK HOUSING,1636 16A ST SE,4110,GJ,Calgary,Alberta,Canada
INACTIVE - 3206 30A AV SE HOUSING,4405 RICHARDSON WY SW,192,GJ,Calgary,Alberta,Canada
INACTIVE - 5238 19 AV NW HOUSING,4414 RICHARDSON RD SW,208,GJ,Calgary,Alberta,Canada
INACTIVE - 7517 BOWNESS RD NW HOUSING,4433 RICHARDSON WY SW,204,GJ,Calgary,Alberta,Canada
INACTIVE - HOUSE - 2215 LINCOLN DR SW,4448 RICHARDSON RD SW,51,GJ,Calgary,Alberta,Canada
INACTIVE - RESIDENTIAL - 2029 36 ST SE,4467 RICHARDSON WY SW,193,GJ,Calgary,Alberta,Canada
INGLEWOOD TOWNHOUSES,4478 RICHARDSON RD SW,1528,GJ,Calgary,Alberta,Canada
LINCOLN PARK - 4405-4431 RICHARDSON WY SW HOUSING,4501 RICHARDSON WY SW,589,GJ,Calgary,Alberta,Canada
LINCOLN PARK - 4414-4440 RICHARDSON RD SW HOUSING,4514 RICHARDSON RD SW,482,GJ,Calgary,Alberta,Canada
LINCOLN PARK - 4433-4463 RICHARDSON WY SW HOUSING,4538 RICHARDSON RD SW,893,GJ,Calgary,Alberta,Canada
LINCOLN PARK - 4448-4470 RICHARDSON RD SW HOUSING,1719 10 ST SW,630,GJ,Calgary,Alberta,Canada
LINCOLN PARK - 4467-4497 RICHARDSON WY SW HOUSING,872 4 AV SW,611,GJ,Calgary,Alberta,Canada
LINCOLN PARK - 4478-4488 RICHARDSON RD SW HOUSING,400 MACEWAN DR NW,226,GJ,Calgary,Alberta,Canada
LINCOLN PARK - 4501-4523 RICHARDSON WY SW HOUSING,120 MCKENNA CR SE,177,GJ,Calgary,Alberta,Canada
LINCOLN PARK - 4514-4536 RICHARDSON RD SW HOUSING,3500 VARSITY DR NW,437,GJ,Calgary,Alberta,Canada
LINCOLN PARK - 4538-4564 RICHARDSON RD SW HOUSING,4525 MONTGOMERY AV NW,153,GJ,Calgary,Alberta,Canada
LONDON HOUSE,1121 15 AV SW,740,GJ,Calgary,Alberta,Canada
LOUISE STATION,2525 98 AV SW,5045,GJ,Calgary,Alberta,Canada
MACEWAN TERRACE,1440 52 ST SE,5553,GJ,Calgary,Alberta,Canada
MCKENNA LANE,107 PINEHILL PL NE,4271,GJ,Calgary,Alberta,Canada
MCLAURIN VILLAGE,112 PINEHILL PL NE,82,GJ,Calgary,Alberta,Canada
MONTGOMERY HOUSING,119 PINEHILL PL NE,4901,GJ,Calgary,Alberta,Canada
MONTREZ,1001 5919 24 AV NE,3761,GJ,Calgary,Alberta,Canada
OAKRIDGE TOWNHOUSES,102 5919 24 AV NE,2630,GJ,Calgary,Alberta,Canada
PENBROOKE 1 HOUSING,1101 5919 24 AV NE,2307,GJ,Calgary,Alberta,Canada
PINEHILL GARDENS - 107-117 PINEHILL PL NE HOUSING,1201 5919 24 AV NE,574,GJ,Calgary,Alberta,Canada
PINEHILL GARDENS - 112-120 PINEHILL PL NE HOUSING,1401 5919 24 AV NE,622,GJ,Calgary,Alberta,Canada
PINEHILL GARDENS - 119 PINEHILL PL NE HOUSING,1501 5919 24 AV NE,1461,GJ,Calgary,Alberta,Canada
PINEWOOD PARK - #1001-1011 5919 24 AV NE HOUSING,1601 5919 24 AV NE,458,GJ,Calgary,Alberta,Canada
PINEWOOD PARK - #102-108 5919 24 AV NE HOUSING,1701 5919 24 AV NE,267,GJ,Calgary,Alberta,Canada
PINEWOOD PARK - #1101-1107 5919 24 AV NE HOUSING,1801 5919 24 AV NE,342,GJ,Calgary,Alberta,Canada
PINEWOOD PARK - #1201-1207 5919 24 AV NE HOUSING,202 5920 22 AV NE,320,GJ,Calgary,Alberta,Canada
PINEWOOD PARK - #1401-1411 5919 24 AV NE HOUSING,302 5920 22 AV NE,471,GJ,Calgary,Alberta,Canada
PINEWOOD PARK - #1501-1507 5919 24 AV NE HOUSING,502 5920 22 AV NE,350,GJ,Calgary,Alberta,Canada
PINEWOOD PARK - #1601-1607 5919 24 AV NE HOUSING,5919 24 AV NE,272,GJ,Calgary,Alberta,Canada
PINEWOOD PARK - #1701-1711 5919 24 AV NE HOUSING,5920 22 AV NE,493,GJ,Calgary,Alberta,Canada
PINEWOOD PARK - #1801-1807 5919 24 AV NE HOUSING,602 5920 22 AV NE,331,GJ,Calgary,Alberta,Canada
PINEWOOD PARK - #202-208 5920 22 AV NE HOUSING,702 5920 22 AV NE,425,GJ,Calgary,Alberta,Canada
PINEWOOD PARK - #302-312 5920 22 AV NE HOUSING,802 5920 22 AV NE,512,GJ,Calgary,Alberta,Canada
PINEWOOD PARK - #502-508 5920 22 AV NE HOUSING,902 5920 22 AV NE,294,GJ,Calgary,Alberta,Canada
PINEWOOD PARK - 5919 24 AV NE HOUSING,1215 RANCHLANDS WY NW,1503,GJ,Calgary,Alberta,Canada
PINEWOOD PARK - 5920 22 AV NE HOUSING,161 RANCH GLEN DR NW,1635,GJ,Calgary,Alberta,Canada
PINEWOOD PARK - #602-608 5920 22 AV NE HOUSING,40 RANCHLANDS BA NW,324,GJ,Calgary,Alberta,Canada
PINEWOOD PARK - #702-712 5920 22 AV NE HOUSING,900 ROBERT RD NE,431,GJ,Calgary,Alberta,Canada
PINEWOOD PARK - #802-808 5920 22 AV NE HOUSING,1625 42 ST SW,347,GJ,Calgary,Alberta,Canada
PINEWOOD PARK - #902-912 5920 22 AV NE HOUSING,147 RUNDLEMERE RD NE,494,GJ,Calgary,Alberta,Canada
RANCHLANDS GV NW HOUSING,3307 SPRUCE DR SW,1826,GJ,Calgary,Alberta,Canada
RANCHLANDS HOUSING PROJECT,75 SHAWNESSY DR SW,664,GJ,Calgary,Alberta,Canada
RANCHLANDS WEST HOUSING PROJECT,9090 24 ST SE,1395,GJ,Calgary,Alberta,Canada
RENFREW 2,36 STRADWICK RI SW,1426,GJ,Calgary,Alberta,Canada
ROSSCARROCK COMMUNITY HOUSING,58 TEMPLEMONT RD NE,4702,GJ,Calgary,Alberta,Canada
RUNDLEMERE RD NE HOUSING,168 ST MORITZ DR SW,4108,GJ,Calgary,Alberta,Canada
SHAGANAPPI VILLAGE,112 27 AV NW,19730,GJ,Calgary,Alberta,Canada
SHAWNESSY TERRACE,1112 7 AV SW,2559,GJ,Calgary,Alberta,Canada
SOUTH HILL MOBILE HOME PARK,11 VENTURA LN NE,156,GJ,Calgary,Alberta,Canada
STRATHCONA 1,12 VENTURA LN NE,4601,GJ,Calgary,Alberta,Canada
TEMPLE 1 COMMUNITY HOUSING,22 VENTURA LN NE,3143,GJ,Calgary,Alberta,Canada
TREO AT MONTREUX,23 VENTURA LN NE,14508,GJ,Calgary,Alberta,Canada
TUXEDO GARDEN COURT,249A PENNSYLVANIA RD SE,1625,GJ,Calgary,Alberta,Canada
UPTOWN APT,249B PENNSYLVANIA RD SE,2215,GJ,Calgary,Alberta,Canada
VENTURA LN NE - 11-21 VENTURA LN NE HOUSING,249C PENNSYLVANIA RD SE,434,GJ,Calgary,Alberta,Canada
VENTURA LN NE - 12-20 VENTURA LN NE HOUSING,1225 14 AV SW,390,GJ,Calgary,Alberta,Canada
VENTURA LN NE - 22-32 VENTURA LN NE HOUSING,110 WOODMONT CO SW,582,GJ,Calgary,Alberta,Canada
VENTURA LN NE - 23-33 VENTURA LN NE HOUSING,233 WOODRIDGE DR SW,439,GJ,Calgary,Alberta,Canada
VILLAGE III APARTMENTS - 249A PENNSYLVANIA RD SE HOUSING,1040 WOODVIEW CR SW,4982,GJ,Calgary,Alberta,Canada
WHITE WEATHERFORD PLACE,1225 14 AV SW,3817,GJ,Calgary,Alberta,Canada
WOODBINE HOUSING,110 WOODMONT CO SW,1527,GJ,Calgary,Alberta,Canada
WOODLANDS II,233 WOODRIDGE DR SW,5688,GJ,Calgary,Alberta,Canada
WOODVIEW TERRACE,1040 WOODVIEW CR SW,5194,GJ,Calgary,Alberta,Canada
